{
  "norad_id": 68891,
  "name": "KUIPER-00521",
  "history": [
    {
      "epoch": "2026-05-02T10:00:03.000096Z",
      "apogee_km": 452.017745450702,
      "perigee_km": 449.47466934426757,
      "latitude_deg": 11.055981500106151,
      "longitude_deg": -95.46235474575363,
      "height_km": 451.1567974529267,
      "semi_major_axis_km": 6828.8832073974845,
      "eccentricity": 0.0001862,
      "inclination_deg": 51.8825,
      "raan_deg": 103.6544,
      "arg_perigee_deg": 57.1377,
      "mean_anomaly_deg": 108.7233,
      "mean_motion_rev_day": 15.3843175
    }
  ]
}