{"fetched_at":"2026-05-03T06:27:58Z","count":17151,"tles":[{"name":"KUIPER-00521","line1":"1 68891U 26095AD  26122.41670139  .00070789  00000+0  18314-2 0  9997","line2":"2 68891  51.8825 103.6544 0001862  57.1377 108.7233 15.38431750  1768","category":"Other"}]}